{
  "type": "FeatureCollection",
  "features": [
    {
      "type": "Feature",
      "properties": {
        "norad_id": 32440,
        "name": "FENGYUN 1C DEB",
        "group": "fengyun-1c-debris",
        "lat": 61.934705166240576,
        "lon": 41.21756001648203,
        "alt_km": 816.9366886399412,
        "timestamp": "2025-12-14T11:29:50.346774+00:00",
        "meta_object_name": "FENGYUN 1C DEB",
        "meta_object_id": "1999-025DBC",
        "meta_epoch": "2025-12-12T07:47:51.906912",
        "meta_mean_motion": 13.6125644,
        "meta_eccentricity": 0.03219473,
        "meta_inclination": 99.1542,
        "meta_ra_of_asc_node": 201.5922,
        "meta_arg_of_pericenter": 91.933,
        "meta_mean_anomaly": 271.871,
        "meta_ephemeris_type": 0,
        "meta_classification_type": "U",
        "meta_norad_cat_id": 32440,
        "meta_element_set_no": 999,
        "meta_rev_at_epoch": 60280,
        "meta_bstar": 0.0043210943,
        "meta_mean_motion_dot": 4.61e-05,
        "meta_mean_motion_ddot": 0,
        "tle_line1": "1 32440U 99025DBC 25346.32490633  .00004610  00000+0  43211-2 0  9991",
        "tle_line2": "2 32440  99.1542 201.5922 0321947  91.9330 271.8710 13.61256440602801"
      },
      "geometry": {
        "type": "Point",
        "coordinates": [
          41.21756001648203,
          61.934705166240576
        ]
      }
    },
    {
      "type": "Feature",
      "properties": {
        "norad_id": 32447,
        "name": "FENGYUN 1C DEB",
        "group": "fengyun-1c-debris",
        "lat": -37.55820925260464,
        "lon": 177.60978598276446,
        "alt_km": 972.2252937833637,
        "timestamp": "2025-12-14T11:29:50.346784+00:00",
        "meta_object_name": "FENGYUN 1C DEB",
        "meta_object_id": "1999-025DBK",
        "meta_epoch": "2025-12-09T20:22:18.261408",
        "meta_mean_motion": 13.96013309,
        "meta_eccentricity": 0.00800272,
        "meta_inclination": 98.9313,
        "meta_ra_of_asc_node": 0.0649,
        "meta_arg_of_pericenter": 49.1812,
        "meta_mean_anomaly": 311.6255,
        "meta_ephemeris_type": 0,
        "meta_classification_type": "U",
        "meta_norad_cat_id": 32447,
        "meta_element_set_no": 999,
        "meta_rev_at_epoch": 67838,
        "meta_bstar": 0.00036340481,
        "meta_mean_motion_dot": 4.69e-06,
        "meta_mean_motion_ddot": 0,
        "tle_line1": "1 32447U 99025DBK 25343.84882247  .00000469  00000+0  36340-3 0  9992",
        "tle_line2": "2 32447  98.9313   0.0649 0080027  49.1812 311.6255 13.96013309678386"
      },
      "geometry": {
        "type": "Point",
        "coordinates": [
          177.60978598276446,
          -37.55820925260464
        ]
      }
    },
    {
      "type": "Feature",
      "properties": {
        "norad_id": 32451,
        "name": "FENGYUN 1C DEB",
        "group": "fengyun-1c-debris",
        "lat": -3.58697273310316,
        "lon": 147.7402120742512,
        "alt_km": 809.2419647075249,
        "timestamp": "2025-12-14T11:29:50.346794+00:00",
        "meta_object_name": "FENGYUN 1C DEB",
        "meta_object_id": "1999-025DBP",
        "meta_epoch": "2025-12-13T03:26:21.112224",
        "meta_mean_motion": 13.86574675,
        "meta_eccentricity": 0.01852597,
        "meta_inclination": 99.9714,
        "meta_ra_of_asc_node": 326.9492,
        "meta_arg_of_pericenter": 193.8787,
        "meta_mean_anomaly": 165.7234,
        "meta_ephemeris_type": 0,
        "meta_classification_type": "U",
        "meta_norad_cat_id": 32451,
        "meta_element_set_no": 999,
        "meta_rev_at_epoch": 61770,
        "meta_bstar": 0.0027597849,
        "meta_mean_motion_dot": 3.622e-05,
        "meta_mean_motion_ddot": 0,
        "tle_line1": "1 32451U 99025DBP 25347.14329991  .00003622  00000+0  27598-2 0  9994",
        "tle_line2": "2 32451  99.9714 326.9492 0185259 193.8787 165.7234 13.86574675617705"
      },
      "geometry": {
        "type": "Point",
        "coordinates": [
          147.7402120742512,
          -3.58697273310316
        ]
      }
    },
    {
      "type": "Feature",
      "properties": {
        "norad_id": 32453,
        "name": "FENGYUN 1C DEB",
        "group": "fengyun-1c-debris",
        "lat": -17.930211048025434,
        "lon": 75.17026615946273,
        "alt_km": 821.0508069797079,
        "timestamp": "2025-12-14T11:29:50.346804+00:00",
        "meta_object_name": "FENGYUN 1C DEB",
        "meta_object_id": "1999-025DBR",
        "meta_epoch": "2025-12-13T00:18:14.482368",
        "meta_mean_motion": 14.02254123,
        "meta_eccentricity": 0.00962466,
        "meta_inclination": 99.3721,
        "meta_ra_of_asc_node": 256.7263,
        "meta_arg_of_pericenter": 205.2664,
        "meta_mean_anomaly": 154.3777,
        "meta_ephemeris_type": 0,
        "meta_classification_type": "U",
        "meta_norad_cat_id": 32453,
        "meta_element_set_no": 999,
        "meta_rev_at_epoch": 93432,
        "meta_bstar": 0.00092789099,
        "meta_mean_motion_dot": 1.433e-05,
        "meta_mean_motion_ddot": 0,
        "tle_line1": "1 32453U 99025DBR 25347.01266762  .00001433  00000+0  92789-3 0  9991",
        "tle_line2": "2 32453  99.3721 256.7263 0096246 205.2664 154.3777 14.02254123934322"
      },
      "geometry": {
        "type": "Point",
        "coordinates": [
          75.17026615946273,
          -17.930211048025434
        ]
      }
    },
    {
      "type": "Feature",
      "properties": {
        "norad_id": 32455,
        "name": "FENGYUN 1C DEB",
        "group": "fengyun-1c-debris",
        "lat": -25.03140076467593,
        "lon": -4.514811772124493,
        "alt_km": 847.9071480681314,
        "timestamp": "2025-12-14T11:29:50.346813+00:00",
        "meta_object_name": "FENGYUN 1C DEB",
        "meta_object_id": "1999-025DBT",
        "meta_epoch": "2025-12-13T06:56:33.245952",
        "meta_mean_motion": 13.92470718,
        "meta_eccentricity": 0.02360467,
        "meta_inclination": 101.7338,
        "meta_ra_of_asc_node": 179.5507,
        "meta_arg_of_pericenter": 143.9225,
        "meta_mean_anomaly": 217.8115,
        "meta_ephemeris_type": 0,
        "meta_classification_type": "U",
        "meta_norad_cat_id": 32455,
        "meta_element_set_no": 999,
        "meta_rev_at_epoch": 64423,
        "meta_bstar": 0.0034387867,
        "meta_mean_motion_dot": 5.504e-05,
        "meta_mean_motion_ddot": 0,
        "tle_line1": "1 32455U 99025DBT 25347.28927368  .00005504  00000+0  34388-2 0  9991",
        "tle_line2": "2 32455 101.7338 179.5507 0236046 143.9225 217.8115 13.92470718644231"
      },
      "geometry": {
        "type": "Point",
        "coordinates": [
          -4.514811772124493,
          -25.03140076467593
        ]
      }
    },
    {
      "type": "Feature",
      "properties": {
        "norad_id": 32456,
        "name": "FENGYUN 1C DEB",
        "group": "fengyun-1c-debris",
        "lat": 71.43587129996114,
        "lon": 83.00920920362447,
        "alt_km": 1346.7285120789347,
        "timestamp": "2025-12-14T11:29:50.346830+00:00",
        "meta_object_name": "FENGYUN 1C DEB",
        "meta_object_id": "1999-025DBU",
        "meta_epoch": "2025-12-13T02:43:30.810720",
        "meta_mean_motion": 13.35628818,
        "meta_eccentricity": 0.03795557,
        "meta_inclination": 103.6668,
        "meta_ra_of_asc_node": 127.6101,
        "meta_arg_of_pericenter": 224.6734,
        "meta_mean_anomaly": 132.3212,
        "meta_ephemeris_type": 0,
        "meta_classification_type": "U",
        "meta_norad_cat_id": 32456,
        "meta_element_set_no": 999,
        "meta_rev_at_epoch": 60621,
        "meta_bstar": 0.0028857751,
        "meta_mean_motion_dot": 2.143e-05,
        "meta_mean_motion_ddot": 0,
        "tle_line1": "1 32456U 99025DBU 25347.11355105  .00002143  00000+0  28858-2 0  9999",
        "tle_line2": "2 32456 103.6668 127.6101 0379555 224.6734 132.3212 13.35628818606216"
      },
      "geometry": {
        "type": "Point",
        "coordinates": [
          83.00920920362447,
          71.43587129996114
        ]
      }
    },
    {
      "type": "Feature",
      "properties": {
        "norad_id": 32458,
        "name": "FENGYUN 1C DEB",
        "group": "fengyun-1c-debris",
        "lat": -0.31954253638438007,
        "lon": -171.5252707031106,
        "alt_km": 717.1238063439905,
        "timestamp": "2025-12-14T11:29:50.346841+00:00",
        "meta_object_name": "FENGYUN 1C DEB",
        "meta_object_id": "1999-025DBW",
        "meta_epoch": "2025-12-08T06:52:15.068064",
        "meta_mean_motion": 14.62160146,
        "meta_eccentricity": 0.00405564,
        "meta_inclination": 99.046,
        "meta_ra_of_asc_node": 1.7508,
        "meta_arg_of_pericenter": 27.6994,
        "meta_mean_anomaly": 332.6353,
        "meta_ephemeris_type": 0,
        "meta_classification_type": "U",
        "meta_norad_cat_id": 32458,
        "meta_element_set_no": 999,
        "meta_rev_at_epoch": 67724,
        "meta_bstar": 0.0019224362,
        "meta_mean_motion_dot": 9.742e-05,
        "meta_mean_motion_ddot": 0,
        "tle_line1": "1 32458U 99025DBW 25342.28628551  .00009742  00000+0  19224-2 0  9991",
        "tle_line2": "2 32458  99.0460   1.7508 0040556  27.6994 332.6353 14.62160146677242"
      },
      "geometry": {
        "type": "Point",
        "coordinates": [
          -171.5252707031106,
          -0.31954253638438007
        ]
      }
    }
  ]
}